ONEWEB-0658             
1 55819U 23029Z   26108.09715034  .00000010  00000+0 -85440-5 0  9997
2 55819  87.9171 316.9297 0001981  75.1425 284.9927 13.19723634150997
ONEWEB-0660             
1 55820U 23029AA  26107.99361165  .00000209  00000+0  52796-3 0  9994
2 55820  87.8931 301.7109 0002066  90.0890 270.0476 13.14503053151490
ONEWEB-0661             
1 55821U 23029AB  26108.10461674 -.00000303  00000+0 -85246-3 0  9998
2 55821  87.8923 301.7406 0002005  93.0834 267.0526 13.14501383151492
ONEWEB-0662             
1 55822U 23029AC  26108.06338561  .00000237  00000+0  60564-3 0  9992
2 55822  87.8915 301.7563 0002079  89.8521 270.2847 13.14502283151532
ONEWEB-0663             
1 55823U 23029AD  26108.24305947 -.00000028  00000+0 -10065-3 0  9996
2 55823  87.9143 286.4666 0002166  86.9108 273.2274 13.20864903153239
ONEWEB-0664             
1 55824U 23029AE  26108.19208446 -.00000016  00000+0 -71335-4 0  9992
2 55824  87.9127 286.4645 0002115 102.8962 257.2408 13.20769231153227
ONEWEB-0665             
1 55825U 23029AF  26108.25367453 -.00000150  00000+0 -43940-3 0  9993
2 55825  87.8922 301.6913 0002052  87.4972 272.6393 13.14501989151530
ONEWEB-0666             
1 55826U 23029AG  26108.18575349  .00000014  00000+0  31413-5 0  9992
2 55826  87.9127 286.4555 0001033  94.8568 265.2684 13.20773552153236
ONEWEB-0667             
1 55827U 23029AH  26108.25520590 -.00000286  00000+0 -73523-3 0  9998
2 55827  87.9143 286.3894 0002034  92.7321 267.4045 13.20775996153235
ONEWEB-0669             
1 55828U 23029AJ  26108.25046796 -.00000012  00000+0 -60854-4 0  9991
2 55828  87.9128 286.4082 0001697 113.7739 246.3573 13.20773300153239
ONEWEB-0670             
1 55829U 23029AK  26108.00312275  .00000085  00000+0  19387-3 0  9995
2 55829  87.8918 301.7597 0002028  97.0007 263.1354 13.14502081151522
ONEWEB-0671             
1 55830U 23029AL  26108.09241238  .00000076  00000+0  15772-3 0  9990
2 55830  87.9168 316.9613 0001933  86.7298 273.4056 13.19724179150970
ONEWEB-0672             
1 55831U 23029AM  26108.24573712 -.00000040  00000+0 -13056-3 0  9999
2 55831  87.9138 286.3997 0001496  98.6871 261.4432 13.20769880153233
ONEWEB-0673             
1 55832U 23029AN  26107.99368797  .00000114  00000+0  25183-3 0  9990
2 55832  87.9174 316.9672 0001909  88.2201 271.9151 13.19724918150967
ONEWEB-0674             
1 55833U 23029AP  26108.27588015  .00000040  00000+0  72107-4 0  9997
2 55833  87.8916 301.6824 0002069  99.2318 260.9045 13.14501679151547
ONEWEB-0675             
1 55834U 23029AQ  26108.08450527 -.00000225  00000+0 -59531-3 0  9995
2 55834  87.9164 316.9644 0001520  79.7851 280.3453 13.19725189150995
