[{"OBJECT_NAME":"ONEWEB-0658","OBJECT_ID":"2023-029Z","EPOCH":"2026-04-18T02:19:53.789376","MEAN_MOTION":13.19723634,"ECCENTRICITY":0.0001981,"INCLINATION":87.9171,"RA_OF_ASC_NODE":316.9297,"ARG_OF_PERICENTER":75.1425,"MEAN_ANOMALY":284.9927,"EPHEMERIS_TYPE":0,"CLASSIFICATION_TYPE":"U","NORAD_CAT_ID":55819,"ELEMENT_SET_NO":999,"REV_AT_EPOCH":15099,"BSTAR":-8.544000000000002e-06,"MEAN_MOTION_DOT":1e-07,"MEAN_MOTION_DDOT":0.0},{"OBJECT_NAME":"ONEWEB-0660","OBJECT_ID":"2023-029AA","EPOCH":"2026-04-17T23:50:48.046560","MEAN_MOTION":13.14503053,"ECCENTRICITY":0.0002066,"INCLINATION":87.8931,"RA_OF_ASC_NODE":301.7109,"ARG_OF_PERICENTER":90.089,"MEAN_ANOMALY":270.0476,"EPHEMERIS_TYPE":0,"CLASSIFICATION_TYPE":"U","NORAD_CAT_ID":55820,"ELEMENT_SET_NO":999,"REV_AT_EPOCH":15149,"BSTAR":0.00052796,"MEAN_MOTION_DOT":2.09e-06,"MEAN_MOTION_DDOT":0.0},{"OBJECT_NAME":"ONEWEB-0661","OBJECT_ID":"2023-029AB","EPOCH":"2026-04-18T02:30:38.886336","MEAN_MOTION":13.14501383,"ECCENTRICITY":0.0002005,"INCLINATION":87.8923,"RA_OF_ASC_NODE":301.7406,"ARG_OF_PERICENTER":93.0834,"MEAN_ANOMALY":267.0526,"EPHEMERIS_TYPE":0,"CLASSIFICATION_TYPE":"U","NORAD_CAT_ID":55821,"ELEMENT_SET_NO":999,"REV_AT_EPOCH":15149,"BSTAR":-0.00085246,"MEAN_MOTION_DOT":-3.03e-06,"MEAN_MOTION_DDOT":0.0},{"OBJECT_NAME":"ONEWEB-0662","OBJECT_ID":"2023-029AC","EPOCH":"2026-04-18T01:31:16.516704","MEAN_MOTION":13.14502283,"ECCENTRICITY":0.0002079,"INCLINATION":87.8915,"RA_OF_ASC_NODE":301.7563,"ARG_OF_PERICENTER":89.8521,"MEAN_ANOMALY":270.2847,"EPHEMERIS_TYPE":0,"CLASSIFICATION_TYPE":"U","NORAD_CAT_ID":55822,"ELEMENT_SET_NO":999,"REV_AT_EPOCH":15153,"BSTAR":0.00060564,"MEAN_MOTION_DOT":2.37e-06,"MEAN_MOTION_DDOT":0.0},{"OBJECT_NAME":"ONEWEB-0663","OBJECT_ID":"2023-029AD","EPOCH":"2026-04-18T05:50:00.338208","MEAN_MOTION":13.20864903,"ECCENTRICITY":0.0002166,"INCLINATION":87.9143,"RA_OF_ASC_NODE":286.4666,"ARG_OF_PERICENTER":86.9108,"MEAN_ANOMALY":273.2274,"EPHEMERIS_TYPE":0,"CLASSIFICATION_TYPE":"U","NORAD_CAT_ID":55823,"ELEMENT_SET_NO":999,"REV_AT_EPOCH":15323,"BSTAR":-0.00010065000000000001,"MEAN_MOTION_DOT":-2.8e-07,"MEAN_MOTION_DDOT":0.0},{"OBJECT_NAME":"ONEWEB-0664","OBJECT_ID":"2023-029AE","EPOCH":"2026-04-18T04:36:36.097344","MEAN_MOTION":13.20769231,"ECCENTRICITY":0.0002115,"INCLINATION":87.9127,"RA_OF_ASC_NODE":286.4645,"ARG_OF_PERICENTER":102.8962,"MEAN_ANOMALY":257.2408,"EPHEMERIS_TYPE":0,"CLASSIFICATION_TYPE":"U","NORAD_CAT_ID":55824,"ELEMENT_SET_NO":999,"REV_AT_EPOCH":15322,"BSTAR":-7.133500000000001e-05,"MEAN_MOTION_DOT":-1.6e-07,"MEAN_MOTION_DDOT":0.0},{"OBJECT_NAME":"ONEWEB-0665","OBJECT_ID":"2023-029AF","EPOCH":"2026-04-18T06:05:17.479392","MEAN_MOTION":13.14501989,"ECCENTRICITY":0.0002052,"INCLINATION":87.8922,"RA_OF_ASC_NODE":301.6913,"ARG_OF_PERICENTER":87.4972,"MEAN_ANOMALY":272.6393,"EPHEMERIS_TYPE":0,"CLASSIFICATION_TYPE":"U","NORAD_CAT_ID":55825,"ELEMENT_SET_NO":999,"REV_AT_EPOCH":15153,"BSTAR":-0.0004394,"MEAN_MOTION_DOT":-1.5e-06,"MEAN_MOTION_DDOT":0.0},{"OBJECT_NAME":"ONEWEB-0666","OBJECT_ID":"2023-029AG","EPOCH":"2026-04-18T04:27:29.101536","MEAN_MOTION":13.20773552,"ECCENTRICITY":0.0001033,"INCLINATION":87.9127,"RA_OF_ASC_NODE":286.4555,"ARG_OF_PERICENTER":94.8568,"MEAN_ANOMALY":265.2684,"EPHEMERIS_TYPE":0,"CLASSIFICATION_TYPE":"U","NORAD_CAT_ID":55826,"ELEMENT_SET_NO":999,"REV_AT_EPOCH":15323,"BSTAR":3.1413000000000003e-06,"MEAN_MOTION_DOT":1.4e-07,"MEAN_MOTION_DDOT":0.0},{"OBJECT_NAME":"ONEWEB-0667","OBJECT_ID":"2023-029AH","EPOCH":"2026-04-18T06:07:29.789760","MEAN_MOTION":13.20775996,"ECCENTRICITY":0.0002034,"INCLINATION":87.9143,"RA_OF_ASC_NODE":286.3894,"ARG_OF_PERICENTER":92.7321,"MEAN_ANOMALY":267.4045,"EPHEMERIS_TYPE":0,"CLASSIFICATION_TYPE":"U","NORAD_CAT_ID":55827,"ELEMENT_SET_NO":999,"REV_AT_EPOCH":15323,"BSTAR":-0.00073523,"MEAN_MOTION_DOT":-2.86e-06,"MEAN_MOTION_DDOT":0.0},{"OBJECT_NAME":"ONEWEB-0669","OBJECT_ID":"2023-029AJ","EPOCH":"2026-04-18T06:00:40.431744","MEAN_MOTION":13.207733,"ECCENTRICITY":0.0001697,"INCLINATION":87.9128,"RA_OF_ASC_NODE":286.4082,"ARG_OF_PERICENTER":113.7739,"MEAN_ANOMALY":246.3573,"EPHEMERIS_TYPE":0,"CLASSIFICATION_TYPE":"U","NORAD_CAT_ID":55828,"ELEMENT_SET_NO":999,"REV_AT_EPOCH":15323,"BSTAR":-6.0854e-05,"MEAN_MOTION_DOT":-1.2e-07,"MEAN_MOTION_DDOT":0.0},{"OBJECT_NAME":"ONEWEB-0670","OBJECT_ID":"2023-029AK","EPOCH":"2026-04-18T00:04:29.805600","MEAN_MOTION":13.14502081,"ECCENTRICITY":0.0002028,"INCLINATION":87.8918,"RA_OF_ASC_NODE":301.7597,"ARG_OF_PERICENTER":97.0007,"MEAN_ANOMALY":263.1354,"EPHEMERIS_TYPE":0,"CLASSIFICATION_TYPE":"U","NORAD_CAT_ID":55829,"ELEMENT_SET_NO":999,"REV_AT_EPOCH":15152,"BSTAR":0.00019386999999999999,"MEAN_MOTION_DOT":8.5e-07,"MEAN_MOTION_DDOT":0.0},{"OBJECT_NAME":"ONEWEB-0671","OBJECT_ID":"2023-029AL","EPOCH":"2026-04-18T02:13:04.429632","MEAN_MOTION":13.19724179,"ECCENTRICITY":0.0001933,"INCLINATION":87.9168,"RA_OF_ASC_NODE":316.9613,"ARG_OF_PERICENTER":86.7298,"MEAN_ANOMALY":273.4056,"EPHEMERIS_TYPE":0,"CLASSIFICATION_TYPE":"U","NORAD_CAT_ID":55830,"ELEMENT_SET_NO":999,"REV_AT_EPOCH":15097,"BSTAR":0.00015772,"MEAN_MOTION_DOT":7.6e-07,"MEAN_MOTION_DDOT":0.0},{"OBJECT_NAME":"ONEWEB-0672","OBJECT_ID":"2023-029AM","EPOCH":"2026-04-18T05:53:51.687168","MEAN_MOTION":13.2076988,"ECCENTRICITY":0.0001496,"INCLINATION":87.9138,"RA_OF_ASC_NODE":286.3997,"ARG_OF_PERICENTER":98.6871,"MEAN_ANOMALY":261.4432,"EPHEMERIS_TYPE":0,"CLASSIFICATION_TYPE":"U","NORAD_CAT_ID":55831,"ELEMENT_SET_NO":999,"REV_AT_EPOCH":15323,"BSTAR":-0.00013056000000000002,"MEAN_MOTION_DOT":-4e-07,"MEAN_MOTION_DDOT":0.0},{"OBJECT_NAME":"ONEWEB-0673","OBJECT_ID":"2023-029AN","EPOCH":"2026-04-17T23:50:54.640608","MEAN_MOTION":13.19724918,"ECCENTRICITY":0.0001909,"INCLINATION":87.9174,"RA_OF_ASC_NODE":316.9672,"ARG_OF_PERICENTER":88.2201,"MEAN_ANOMALY":271.9151,"EPHEMERIS_TYPE":0,"CLASSIFICATION_TYPE":"U","NORAD_CAT_ID":55832,"ELEMENT_SET_NO":999,"REV_AT_EPOCH":15096,"BSTAR":0.00025183,"MEAN_MOTION_DOT":1.14e-06,"MEAN_MOTION_DDOT":0.0},{"OBJECT_NAME":"ONEWEB-0674","OBJECT_ID":"2023-029AP","EPOCH":"2026-04-18T06:37:16.044960","MEAN_MOTION":13.14501679,"ECCENTRICITY":0.0002069,"INCLINATION":87.8916,"RA_OF_ASC_NODE":301.6824,"ARG_OF_PERICENTER":99.2318,"MEAN_ANOMALY":260.9045,"EPHEMERIS_TYPE":0,"CLASSIFICATION_TYPE":"U","NORAD_CAT_ID":55833,"ELEMENT_SET_NO":999,"REV_AT_EPOCH":15154,"BSTAR":7.2107e-05,"MEAN_MOTION_DOT":4e-07,"MEAN_MOTION_DDOT":0.0},{"OBJECT_NAME":"ONEWEB-0675","OBJECT_ID":"2023-029AQ","EPOCH":"2026-04-18T02:01:41.255328","MEAN_MOTION":13.19725189,"ECCENTRICITY":0.000152,"INCLINATION":87.9164,"RA_OF_ASC_NODE":316.9644,"ARG_OF_PERICENTER":79.7851,"MEAN_ANOMALY":280.3453,"EPHEMERIS_TYPE":0,"CLASSIFICATION_TYPE":"U","NORAD_CAT_ID":55834,"ELEMENT_SET_NO":999,"REV_AT_EPOCH":15099,"BSTAR":-0.00059531,"MEAN_MOTION_DOT":-2.25e-06,"MEAN_MOTION_DDOT":0.0}]